[{"OBJECT_NAME":"RANGE-A","OBJECT_ID":"2018-099R","EPOCH":"2026-03-09T16:56:29.908608","MEAN_MOTION":15.1245864,"ECCENTRICITY":0.00096737,"INCLINATION":97.4107,"RA_OF_ASC_NODE":114.1927,"ARG_OF_PERICENTER":340.4473,"MEAN_ANOMALY":19.6386,"EPHEMERIS_TYPE":0,"CLASSIFICATION_TYPE":"U","NORAD_CAT_ID":43773,"ELEMENT_SET_NO":999,"REV_AT_EPOCH":39745,"BSTAR":0.00032165687,"MEAN_MOTION_DOT":5.536e-5,"MEAN_MOTION_DDOT":0},{"OBJECT_NAME":"STARLINK-3517","OBJECT_ID":"2022-016X","EPOCH":"2026-03-09T22:11:12.656256","MEAN_MOTION":15.08830912,"ECCENTRICITY":0.00013307,"INCLINATION":53.2188,"RA_OF_ASC_NODE":318.0698,"ARG_OF_PERICENTER":104.3955,"MEAN_ANOMALY":255.7185,"EPHEMERIS_TYPE":0,"CLASSIFICATION_TYPE":"U","NORAD_CAT_ID":51735,"ELEMENT_SET_NO":999,"REV_AT_EPOCH":22360,"BSTAR":-8.9011013e-5,"MEAN_MOTION_DOT":-1.704e-5,"MEAN_MOTION_DDOT":0}]
